{"type": "FeatureCollection", "features": [ {"type": "Feature", "properties": {"norad_id": 32224, "name": "FENGYUN 1C DEB", "group": "fengyun-1c-debris", "lat": 80.4214803597925, "lon": -129.0615445143263, "alt_km": 722.016012101597, "timestamp": "2025-12-15T10:55:21.429212+00:00", "meta": {"OBJECT_NAME": "FENGYUN 1C DEB", "OBJECT_ID": "1999-025CVW", "EPOCH": "2025-12-14T14:25:50.796768", "MEAN_MOTION": 14.34026047, "ECCENTRICITY": 0.00771719, "INCLINATION": 98.984, "RA_OF_ASC_NODE": 299.6833, "ARG_OF_PERICENTER": 61.1307, "MEAN_ANOMALY": 299.7593, "EPHEMERIS_TYPE": 0, "CLASSIFICATION_TYPE": "U", "NORAD_CAT_ID": 32224, "ELEMENT_SET_NO": 999, "REV_AT_EPOCH": 95750, "BSTAR": 0.00040405507, "MEAN_MOTION_DOT": 1.12e-05, "MEAN_MOTION_DDOT": 0}, "tle": {"line1": "1 32224U 99025CVW 25348.60128237  .00001120  00000+0  40406-3 0  9999", "line2": "2 32224  98.9840 299.6833 0077171  61.1307 299.7593 14.34026047957505"}}, "geometry": {"type": "Point", "coordinates": [-129.0615445143263, 80.4214803597925]}}, {"type": "Feature", "properties": {"norad_id": 32225, "name": "FENGYUN 1C DEB", "group": "fengyun-1c-debris", "lat": -16.81271918609811, "lon": -144.6131823696219, "alt_km": 801.9098477811986, "timestamp": "2025-12-15T10:55:21.429222+00:00", "meta": {"OBJECT_NAME": "FENGYUN 1C DEB", "OBJECT_ID": "1999-025CVX", "EPOCH": "2025-12-14T08:30:03.848544", "MEAN_MOTION": 14.13046821, "ECCENTRICITY": 0.00717754, "INCLINATION": 99.0923, "RA_OF_ASC_NODE": 37.0425, "ARG_OF_PERICENTER": 201.9609, "MEAN_ANOMALY": 157.8482, "EPHEMERIS_TYPE": 0, "CLASSIFICATION_TYPE": "U", "NORAD_CAT_ID": 32225, "ELEMENT_SET_NO": 999, "REV_AT_EPOCH": 68139, "BSTAR": 0.0002902606, "MEAN_MOTION_DOT": 5.09e-06, "MEAN_MOTION_DDOT": 0}, "tle": {"line1": "1 32225U 99025CVX 25348.35421121  .00000509  00000+0  29026-3 0  9995", "line2": "2 32225  99.0923  37.0425 0071775 201.9609 157.8482 14.13046821681395"}}, "geometry": {"type": "Point", "coordinates": [-144.6131823696219, -16.81271918609811]}}, {"type": "Feature", "properties": {"norad_id": 32230, "name": "FENGYUN 1C DEB", "group": "fengyun-1c-debris", "lat": 80.93674353110231, "lon": 37.487956866001554, "alt_km": 662.7243638088621, "timestamp": "2025-12-15T10:55:21.429233+00:00", "meta": {"OBJECT_NAME": "FENGYUN 1C DEB", "OBJECT_ID": "1999-025CWC", "EPOCH": "2025-12-13T09:10:06.590208", "MEAN_MOTION": 14.56150163, "ECCENTRICITY": 0.005055, "INCLINATION": 98.8706, "RA_OF_ASC_NODE": 137.0363, "ARG_OF_PERICENTER": 87.2509, "MEAN_ANOMALY": 303.0071, "EPHEMERIS_TYPE": 0, "CLASSIFICATION_TYPE": "U", "NORAD_CAT_ID": 32230, "ELEMENT_SET_NO": 999, "REV_AT_EPOCH": 60679, "BSTAR": 0.0050290882, "MEAN_MOTION_DOT": 0.00022605, "MEAN_MOTION_DDOT": 0}, "tle": {"line1": "1 32230U 99025CWC 25347.38202072  .00022605  00000+0  50291-2 0  9993", "line2": "2 32230  98.8706 137.0363 0050550  87.2509 303.0071 14.56150163606793"}}, "geometry": {"type": "Point", "coordinates": [37.487956866001554, 80.93674353110231]}}, {"type": "Feature", "properties": {"norad_id": 32234, "name": "FENGYUN 1C DEB", "group": "fengyun-1c-debris", "lat": -24.409338647108772, "lon": -156.9945602943022, "alt_km": 820.0620744402659, "timestamp": "2025-12-15T10:55:21.429243+00:00", "meta": {"OBJECT_NAME": "FENGYUN 1C DEB", "OBJECT_ID": "1999-025CWG", "EPOCH": "2025-12-14T12:38:46.497984", "MEAN_MOTION": 13.9413283, "ECCENTRICITY": 0.01374559, "INCLINATION": 98.529, "RA_OF_ASC_NODE": 198.2432, "ARG_OF_PERICENTER": 331.2039, "MEAN_ANOMALY": 28.1585, "EPHEMERIS_TYPE": 0, "CLASSIFICATION_TYPE": "U", "NORAD_CAT_ID": 32234, "ELEMENT_SET_NO": 999, "REV_AT_EPOCH": 93234, "BSTAR": 0.0014985343, "MEAN_MOTION_DOT": 2.108e-05, "MEAN_MOTION_DDOT": 0}, "tle": {"line1": "1 32234U 99025CWG 25348.52692706  .00002108  00000+0  14985-2 0  9997", "line2": "2 32234  98.5290 198.2432 0137455 331.2039  28.1585 13.94132830932348"}}, "geometry": {"type": "Point", "coordinates": [-156.9945602943022, -24.409338647108772]}}, {"type": "Feature", "properties": {"norad_id": 32241, "name": "FENGYUN 1C DEB", "group": "fengyun-1c-debris", "lat": -10.583251662162759, "lon": 20.731082019085623, "alt_km": 871.8116965474865, "timestamp": "2025-12-15T10:55:21.429253+00:00", "meta": {"OBJECT_NAME": "FENGYUN 1C DEB", "OBJECT_ID": "1999-025CWP", "EPOCH": "2025-12-12T20:47:10.610592", "MEAN_MOTION": 14.28745094, "ECCENTRICITY": 0.01463636, "INCLINATION": 99.0782, "RA_OF_ASC_NODE": 16.3251, "ARG_OF_PERICENTER": 223.1188, "MEAN_ANOMALY": 135.8454, "EPHEMERIS_TYPE": 0, "CLASSIFICATION_TYPE": "U", "NORAD_CAT_ID": 32241, "ELEMENT_SET_NO": 999, "REV_AT_EPOCH": 93825, "BSTAR": 0.0022024177, "MEAN_MOTION_DOT": 6.175e-05, "MEAN_MOTION_DDOT": 0}, "tle": {"line1": "1 32241U 99025CWP 25346.86609503  .00006175  00000+0  22024-2 0  9994", "line2": "2 32241  99.0782  16.3251 0146363 223.1188 135.8454 14.28745094938256"}}, "geometry": {"type": "Point", "coordinates": [20.731082019085623, -10.583251662162759]}}, {"type": "Feature", "properties": {"norad_id": 32243, "name": "FENGYUN 1C DEB", "group": "fengyun-1c-debris", "lat": 53.9292672721097, "lon": 2.3266801569674485, "alt_km": 773.9216749135758, "timestamp": "2025-12-15T10:55:21.429265+00:00", "meta": {"OBJECT_NAME": "FENGYUN 1C DEB", "OBJECT_ID": "1999-025CWR", "EPOCH": "2025-12-14T00:28:14.814624", "MEAN_MOTION": 14.04614086, "ECCENTRICITY": 0.0269468, "INCLINATION": 98.2684, "RA_OF_ASC_NODE": 12.5319, "ARG_OF_PERICENTER": 119.9156, "MEAN_ANOMALY": 242.907, "EPHEMERIS_TYPE": 0, "CLASSIFICATION_TYPE": "U", "NORAD_CAT_ID": 32243, "ELEMENT_SET_NO": 999, "REV_AT_EPOCH": 93606, "BSTAR": 0.0022118855, "MEAN_MOTION_DOT": 4.858e-05, "MEAN_MOTION_DDOT": 0}, "tle": {"line1": "1 32243U 99025CWR 25348.01961591  .00004858  00000+0  22119-2 0  9994", "line2": "2 32243  98.2684  12.5319 0269468 119.9156 242.9070 14.04614086936063"}}, "geometry": {"type": "Point", "coordinates": [2.3266801569674485, 53.9292672721097]}}, {"type": "Feature", "properties": {"norad_id": 32245, "name": "FENGYUN 1C DEB", "group": "fengyun-1c-debris", "lat": -46.95333616639485, "lon": -164.91581897834828, "alt_km": 581.4576382478626, "timestamp": "2025-12-15T10:55:21.429275+00:00", "meta": {"OBJECT_NAME": "FENGYUN 1C DEB", "OBJECT_ID": "1999-025CWT", "EPOCH": "2025-12-08T06:47:00.083040", "MEAN_MOTION": 14.76843452, "ECCENTRICITY": 0.00978135, "INCLINATION": 98.6545, "RA_OF_ASC_NODE": 178.0112, "ARG_OF_PERICENTER": 355.9473, "MEAN_ANOMALY": 4.0932, "EPHEMERIS_TYPE": 0, "CLASSIFICATION_TYPE": "U", "NORAD_CAT_ID": 32245, "ELEMENT_SET_NO": 999, "REV_AT_EPOCH": 66040, "BSTAR": 0.0014541087, "MEAN_MOTION_DOT": 0.00011, "MEAN_MOTION_DDOT": 0}, "tle": {"line1": "1 32245U 99025CWT 25342.28263985  .00011000  00000+0  14541-2 0  9998", "line2": "2 32245  98.6545 178.0112 0097813 355.9473   4.0932 14.76843452660407"}}, "geometry": {"type": "Point", "coordinates": [-164.91581897834828, -46.95333616639485]}}, {"type": "Feature", "properties": {"norad_id": 32304, "name": "FENGYUN 1C DEB", "group": "fengyun-1c-debris", "lat": 53.97069802068258, "lon": -68.82809624891996, "alt_km": 752.3777348440481, "timestamp": "2025-12-15T10:55:21.429284+00:00", "meta": {"OBJECT_NAME": "FENGYUN 1C DEB", "OBJECT_ID": "1999-025CWV", "EPOCH": "2025-12-03T02:19:20.087328", "MEAN_MOTION": 14.50391603, "ECCENTRICITY": 0.00495576, "INCLINATION": 99.3949, "RA_OF_ASC_NODE": 290.5539, "ARG_OF_PERICENTER": 255.7789, "MEAN_ANOMALY": 103.7894, "EPHEMERIS_TYPE": 0, "CLASSIFICATION_TYPE": "U", "NORAD_CAT_ID": 32304, "ELEMENT_SET_NO": 999, "REV_AT_EPOCH": 56133, "BSTAR": 0.0019806873, "MEAN_MOTION_DOT": 7.809e-05, "MEAN_MOTION_DDOT": 0}, "tle": {"line1": "1 32304U 99025CWV 25337.09676027  .00007809  00000+0  19807-2 0  9994", "line2": "2 32304  99.3949 290.5539 0049557 255.7789 103.7894 14.50391603561335"}}, "geometry": {"type": "Point", "coordinates": [-68.82809624891996, 53.97069802068258]}}, {"type": "Feature", "properties": {"norad_id": 32308, "name": "FENGYUN 1C DEB", "group": "fengyun-1c-debris", "lat": -56.858641451669534, "lon": -150.107393234459, "alt_km": 960.4943399580789, "timestamp": "2025-12-15T10:55:21.429294+00:00", "meta": {"OBJECT_NAME": "FENGYUN 1C DEB", "OBJECT_ID": "1999-025CWZ", "EPOCH": "2025-12-14T15:00:21.211200", "MEAN_MOTION": 14.05510604, "ECCENTRICITY": 0.0108842, "INCLINATION": 97.7754, "RA_OF_ASC_NODE": 41.2592, "ARG_OF_PERICENTER": 55.1712, "MEAN_ANOMALY": 305.9639, "EPHEMERIS_TYPE": 0, "CLASSIFICATION_TYPE": "U", "NORAD_CAT_ID": 32308, "ELEMENT_SET_NO": 999, "REV_AT_EPOCH": 65438, "BSTAR": 0.0014002809, "MEAN_MOTION_DOT": 2.366e-05, "MEAN_MOTION_DDOT": 0}, "tle": {"line1": "1 32308U 99025CWZ 25348.62524550  .00002366  00000+0  14003-2 0  9998", "line2": "2 32308  97.7754  41.2592 0108842  55.1712 305.9639 14.05510604654381"}}, "geometry": {"type": "Point", "coordinates": [-150.107393234459, -56.858641451669534]}}, {"type": "Feature", "properties": {"norad_id": 32314, "name": "FENGYUN 1C DEB", "group": "fengyun-1c-debris", "lat": 78.78645617878823, "lon": -33.313297104432635, "alt_km": 558.3708573215818, "timestamp": "2025-12-15T10:55:21.429305+00:00", "meta": {"OBJECT_NAME": "FENGYUN 1C DEB", "OBJECT_ID": "1999-025CXF", "EPOCH": "2025-12-09T13:16:04.145664", "MEAN_MOTION": 14.79358552, "ECCENTRICITY": 0.0149391, "INCLINATION": 98.8627, "RA_OF_ASC_NODE": 88.2704, "ARG_OF_PERICENTER": 167.7932, "MEAN_ANOMALY": 192.6962, "EPHEMERIS_TYPE": 0, "CLASSIFICATION_TYPE": "U", "NORAD_CAT_ID": 32314, "ELEMENT_SET_NO": 999, "REV_AT_EPOCH": 97383, "BSTAR": 0.0023179, "MEAN_MOTION_DOT": 0.00020854, "MEAN_MOTION_DDOT": 0}, "tle": {"line1": "1 32314U 99025CXF 25343.55282576  .00020854  00000+0  23179-2 0  9997", "line2": "2 32314  98.8627  88.2704 0149391 167.7932 192.6962 14.79358552973830"}}, "geometry": {"type": "Point", "coordinates": [-33.313297104432635, 78.78645617878823]}}]}